{
    "links": {
        "self": "http://www.neowsapp.com/rest/v1/neo/3739061?api_key=iIulBulltgU6a56xZRHN4H3l9WmuAYTsLGpBGhQ2"
    },
    "id": "3739061",
    "neo_reference_id": "3739061",
    "name": "(2015 YY9)",
    "designation": "2015 YY9",
    "nasa_jpl_url": "http://ssd.jpl.nasa.gov/sbdb.cgi?sstr=3739061",
    "absolute_magnitude_h": 22.0,
    "estimated_diameter": {
        "kilometers": {
            "estimated_diameter_min": 0.1058168859,
            "estimated_diameter_max": 0.2366137501
        },
        "meters": {
            "estimated_diameter_min": 105.8168859331,
            "estimated_diameter_max": 236.6137501138
        },
        "miles": {
            "estimated_diameter_min": 0.0657515442,
            "estimated_diameter_max": 0.1470249225
        },
        "feet": {
            "estimated_diameter_min": 347.1682720448,
            "estimated_diameter_max": 776.2918559233
        }
    },
    "is_potentially_hazardous_asteroid": true,
    "close_approach_data": [
        {
            "close_approach_date": "2015-12-16",
            "close_approach_date_full": "2015-Dec-16 01:25",
            "epoch_date_close_approach": 1450229100000,
            "relative_velocity": {
                "kilometers_per_second": "16.6241138711",
                "kilometers_per_hour": "59846.8099360021",
                "miles_per_hour": "37186.4803182898"
            },
            "miss_distance": {
                "astronomical": "0.0791465855",
                "lunar": "30.7880217595",
                "kilometers": "11840160.608572885",
                "miles": "7357134.647300413"
            },
            "orbiting_body": "Earth"
        }
    ],
    "orbital_data": {
        "orbit_id": "12",
        "orbit_determination_date": "2017-04-06 08:29:35",
        "first_observation_date": "2015-12-29",
        "last_observation_date": "2016-01-14",
        "data_arc_in_days": 16,
        "observations_used": 110,
        "orbit_uncertainty": "8",
        "minimum_orbit_intersection": ".00197777",
        "jupiter_tisserand_invariant": "3.770",
        "epoch_osculation": "2457390.5",
        "eccentricity": ".5642126153553904",
        "semi_major_axis": "1.863929196674465",
        "inclination": "8.285423196608551",
        "ascending_node_longitude": "78.11915734609362",
        "orbital_period": "929.4853384308304",
        "perihelion_distance": ".8122768297814932",
        "perihelion_argument": "300.093525019201",
        "aphelion_distance": "2.915581563567436",
        "perihelion_time": "2457330.875919497758",
        "mean_anomaly": "23.09306892031676",
        "mean_motion": ".3873111119834949",
        "equinox": "J2000",
        "orbit_class": {
            "orbit_class_type": "APO",
            "orbit_class_description": "Near-Earth asteroid orbits which cross the Earth’s orbit similar to that of 1862 Apollo",
            "orbit_class_range": "a (semi-major axis) > 1.0 AU; q (perihelion) < 1.017 AU"
        }
    },
    "is_sentry_object": false
}